ALOS-4 (DAICHI-4)       
1 60182U 24123A   24207.81557119  .00003081  00000+0  41943-3 0  9996
2 60182  97.9216 303.9256 0001556 112.5974 247.5402 14.79457753  3657
